NORAD_CAT_ID,OBJECT_NAME,OBJECT_TYPE,EPOCH,MEAN_MOTION,ECCENTRICITY,INCLINATION,RA_OF_ASC_NODE,ARG_OF_PERICENTER,MEAN_ANOMALY,BSTAR,MEAN_MOTION_DOT,MEAN_MOTION_DDOT,TLE_LINE0,TLE_LINE1,TLE_LINE2,SEMIMAJOR_AXIS,PERIOD,APOGEE,PERIGEE,DECAYED
51142.0,STARLINK-3369,PAYLOAD,2022-03-30 14:00:01,15.59158052,0.0001522,53.2166,286.3843,38.906,111.2129,-0.0025763,-0.0020082,0.0,0 STARLINK-3369,1 51142U 22005AQ  22089.58335648 -.00200820  00000-0 -25763-2 0  9994,2 51142  53.2166 286.3843 0001522  38.9060 111.2129 15.59158052  3661,6768.23,92.358,391.125,389.064,0.0
51142.0,STARLINK-3369,PAYLOAD,2022-03-30 22:00:00,15.59018902,0.0001774,53.2176,284.7733,39.3688,182.6624,-0.0045622,-0.00347081,0.0,0 STARLINK-3369,1 51142U 22005AQ  22089.91667824 -.00347081  00000-0 -45622-2 0  9992,2 51142  53.2176 284.7733 0001774  39.3688 182.6624 15.59018902  3719,6768.632,92.366,391.698,389.297,0.0
51142.0,STARLINK-3369,PAYLOAD,2022-03-31 06:00:00,15.58783087,0.000138,53.2176,283.1575,52.5998,241.1748,-0.0046813,-0.00352685,0.0,0 STARLINK-3369,1 51142U 22005AQ  22090.25001157 -.00352685  00000-0 -46813-2 0  9991,2 51142  53.2176 283.1575 0001380  52.5998 241.1748 15.58783087 12541,6769.315,92.38,392.114,390.246,0.0
51142.0,STARLINK-3369,PAYLOAD,2022-03-31 14:00:01,15.58543219,0.0001553,53.2178,281.5436,38.5,326.7314,-0.0046843,-0.00349849,0.0,0 STARLINK-3369,1 51142U 22005AQ  22090.58334491 -.00349849  00000-0 -46843-2 0  9998,2 51142  53.2178 281.5436 0001553  38.5000 326.7314 15.58543219  3697,6770.009,92.394,392.926,390.823,0.0
51142.0,STARLINK-3369,PAYLOAD,2022-03-31 22:00:00,15.58302811,0.00017,53.2176,279.9324,35.1818,41.219,-0.0046977,-0.00347771,0.0,0 STARLINK-3369,1 51142U 22005AQ  22090.91667824 -.00347771  00000-0 -46977-2 0  9994,2 51142  53.2176 279.9324 0001700  35.1818  41.2190 15.58302811  3698,6770.706,92.408,393.722,391.42,0.0
51142.0,STARLINK-3369,PAYLOAD,2022-04-01 14:00:01,15.5782573,0.0001781999999999,53.2176,276.7061,38.1149,179.7654,-0.004778,-0.00347419,0.0,0 STARLINK-3369,1 51142U 22005AQ  22091.58334491 -.00347419  00000-0 -47780-2 0  9991,2 51142  53.2176 276.7061 0001782  38.1149 179.7654 15.57825730 12748,6772.0880000000025,92.437,395.16,392.746,0.0
51142.0,STARLINK-3369,PAYLOAD,2022-04-01 22:00:00,15.57586578,0.000171,53.2175,275.0966,39.2808,248.9077,-0.0048177,-0.0034717,0.0,0 STARLINK-3369,1 51142U 22005AQ  22091.91667824 -.00347170  00000-0 -48177-2 0  9992,2 51142  53.2175 275.0966 0001710  39.2808 248.9077 15.57586578  3661,6772.781,92.451,395.804,393.48800000000006,0.0
51142.0,STARLINK-3369,PAYLOAD,2022-04-02 14:00:01,15.57110846,0.0001740999999999,53.2175,271.8739,33.3455,34.6662,-0.0049479,-0.00350108,0.0,0 STARLINK-3369,1 51142U 22005AQ  22092.58335648 -.00350108  00000-0 -49479-2 0  9993,2 51142  53.2175 271.8739 0001741  33.3455  34.6662 15.57110846 12908,6774.161,92.479,397.205,394.846,0.0
51142.0,STARLINK-3369,PAYLOAD,2022-04-02 22:00:01,15.56867086,0.0001727,53.2175,270.2659,37.4269,100.0343,-0.0048632,-0.00341367,0.0,0 STARLINK-3369,1 51142U 22005AQ  22092.91668981 -.00341367  00000-0 -48632-2 0  9996,2 51142  53.2175 270.2659 0001727  37.4269 100.0343 15.56867086  3698,6774.868,92.493,397.903,395.56300000000016,0.0
51142.0,STARLINK-3369,PAYLOAD,2022-04-03 22:00:00,15.56153497,0.0001474,53.2175,265.4406,43.9996,300.0204,-0.0050583999999999,-0.00345539,0.0,0 STARLINK-3369,1 51142U 22005AQ  22093.91667824 -.00345539  00000-0 -50584-2 0  9996,2 51142  53.2175 265.4406 0001474  43.9996 300.0204 15.56153497 13112,6776.939,92.536,399.80300000000005,397.805,0.0
51142.0,STARLINK-3369,PAYLOAD,2022-04-04 14:00:01,15.55677935,0.0002002,53.2175,262.2251,28.1949,92.1412,-0.0052036,-0.00349109,0.0,0 STARLINK-3369,1 51142U 22005AQ  22094.58334491 -.00349109  00000-0 -52036-2 0  9992,2 51142  53.2175 262.2251 0002002  28.1949  92.1412 15.55677935  3695,6778.32,92.564,401.542,398.828,0.0
51142.0,STARLINK-3369,PAYLOAD,2022-04-04 22:00:00,15.5543421,0.000177,53.2173,260.6203,36.954,151.1106,-0.0051053,-0.00339824,0.0,0 STARLINK-3369,1 51142U 22005AQ  22094.91667824 -.00339824  00000-0 -51053-2 0  9999,2 51142  53.2173 260.6203 0001770  36.9540 151.1106 15.55434210  3690,6779.028,92.579,402.093,399.693,0.0
51142.0,STARLINK-3369,PAYLOAD,2022-04-05 06:00:00,15.55165784,0.0001812,53.2172,259.0118,31.8988,223.6225,-0.0044566,-0.00295405,0.0,0 STARLINK-3369,1 51142U 22005AQ  22095.25001157 -.00295405  00000-0 -44566-2 0  9995,2 51142  53.2172 259.0118 0001812  31.8988 223.6225 15.55165784 13328,6779.808000000001,92.595,402.901,400.444,0.0
51142.0,STARLINK-3369,PAYLOAD,2022-04-05 14:00:01,15.54962353,0.0001846,53.2176,257.4083,32.3343,290.3887,-0.0053572,-0.00349979,0.0,0 STARLINK-3369,1 51142U 22005AQ  22095.58335648 -.00349979  00000-0 -53572-2 0  9999,2 51142  53.2176 257.4083 0001846  32.3343 290.3887 15.54962353  3682,6780.399,92.607,403.516,401.012,0.0
51142.0,STARLINK-3369,PAYLOAD,2022-04-05 22:00:00,15.54721301,0.0001571999999999,53.2173,255.8053,37.3567,352.1683,-0.0053288999999999,-0.00345245,0.0,0 STARLINK-3369,1 51142U 22005AQ  22095.91667824 -.00345245  00000-0 -53289-2 0  9997,2 51142  53.2173 255.8053 0001572  37.3567 352.1683 15.54721301 13427,6781.1,92.621,404.031,401.899,0.0
51142.0,STARLINK-3369,PAYLOAD,2022-04-06 14:00:01,15.54244519,0.0001999,53.2176,252.5969,30.9586,131.4408,-0.0054503,-0.00346932,0.0,0 STARLINK-3369,1 51142U 22005AQ  22096.58334491 -.00346932  00000-0 -54503-2 0  9996,2 51142  53.2176 252.5969 0001999  30.9586 131.4408 15.54244519  3684,6782.486999999999,92.65,405.707,402.996,0.0
51142.0,STARLINK-3369,PAYLOAD,2022-04-06 22:00:00,15.54004239,0.0001614,53.2173,250.9951,44.5772,183.8285,-0.0054417,-0.00343477,0.0,0 STARLINK-3369,1 51142U 22005AQ  22096.91667824 -.00343477  00000-0 -54417-2 0  9997,2 51142  53.2173 250.9951 0001614  44.5772 183.8285 15.54004239  3683,6783.186,92.664,406.146,403.956,0.0
51142.0,STARLINK-3369,PAYLOAD,2022-04-07 04:00:00,15.5382784,0.0001865,53.2176,249.7918,33.8202,153.9024,-0.0055603,-0.00348497,0.0,0 STARLINK-3369,1 51142U 22005AQ  22097.16667824 -.00348497  00000-0 -55603-2 0  9990,2 51142  53.2176 249.7918 0001865  33.8202 153.9024 15.53827840 13615,6783.699000000001,92.674,406.829,404.299,0.0
51142.0,STARLINK-3369,PAYLOAD,2022-04-07 14:00:01,15.53530152,0.0001863,53.2177,247.7906,30.3721,329.1857,-0.0056465,-0.00350006,0.0,0 STARLINK-3369,1 51142U 22005AQ  22097.58334491 -.00350006  00000-0 -56465-2 0  9993,2 51142  53.2177 247.7906 0001863  30.3721 329.1857 15.53530152  3692,6784.566,92.692,407.695,405.167,0.0
51142.0,STARLINK-3369,PAYLOAD,2022-04-07 22:00:00,15.53289887,0.0001635,53.2171,246.1905,35.6461,29.0575,-0.0056361,-0.0034646,0.0,0 STARLINK-3369,1 51142U 22005AQ  22097.91667824 -.00346460  00000-0 -56361-2 0  9993,2 51142  53.2171 246.1905 0001635  35.6461  29.0575 15.53289887  3693,6785.265,92.706,408.24,406.021,0.0
51142.0,STARLINK-3369,PAYLOAD,2022-04-08 06:00:00,15.53050275,0.0001776,53.2172,244.5882,33.1503,96.4142,-0.0056709,-0.0034562,0.0,0 STARLINK-3369,1 51142U 22005AQ  22098.25001157 -.00345620  00000-0 -56709-2 0  9995,2 51142  53.2172 244.5882 0001776  33.1503  96.4142 15.53050275 13782,6785.9630000000025,92.721,409.033,406.62300000000016,0.0
51142.0,STARLINK-3369,PAYLOAD,2022-04-08 14:00:03,15.5281111,0.0002089,53.2174,242.9893,30.4156,163.8504,-0.0057073,-0.00344884,0.0,0 STARLINK-3369,1 51142U 22005AQ  22098.58336806 -.00344884  00000-0 -57073-2 0  9999,2 51142  53.2174 242.9893 0002089  30.4156 163.8504 15.52811110  3681,6786.66,92.735,409.943,407.107,0.0
51142.0,STARLINK-3369,PAYLOAD,2022-04-08 22:00:00,15.525745,0.0001626,53.2171,241.3908,41.8641,216.5566,-0.0058104,-0.0034795,0.0,0 STARLINK-3369,1 51142U 22005AQ  22098.91667824 -.00347950  00000-0 -58104-2 0  9996,2 51142  53.2171 241.3908 0001626  41.8641 216.5566 15.52574500  3659,6787.349,92.749,410.318,408.111,0.0
51142.0,STARLINK-3369,PAYLOAD,2022-04-09 14:00:01,15.52097845,0.0001885,53.2176,238.1935,30.0882,356.0433,-0.0059473999999999,-0.00349995,0.0,0 STARLINK-3369,1 51142U 22005AQ  22099.58334491 -.00349995  00000-0 -59474-2 0  9993,2 51142  53.2176 238.1935 0001885  30.0882 356.0433 15.52097845 13995,6788.739000000001,92.778,411.884,409.324,0.0
51142.0,STARLINK-3369,PAYLOAD,2022-04-09 22:00:00,15.51858086,0.0001605,53.2172,236.5963,37.7204,51.8362,-0.0059528,-0.00347397,0.0,0 STARLINK-3369,1 51142U 22005AQ  22099.91667824 -.00347397  00000-0 -59528-2 0  9993,2 51142  53.2172 236.5963 0001605  37.7204  51.8362 15.51858086  3683,6789.438,92.792,412.393,410.213,0.0
51142.0,STARLINK-3369,PAYLOAD,2022-04-10 14:00:01,15.51378525,0.0002055,53.2175,233.4026,31.9755,183.5718,-0.0060025,-0.00344469,0.0,0 STARLINK-3369,1 51142U 22005AQ  22100.58334491 -.00344469  00000-0 -60025-2 0  9991,2 51142  53.2175 233.4026 0002055  31.9755 183.5718 15.51378525  3682,6790.837,92.821,414.098,411.307,0.0
51142.0,STARLINK-3369,PAYLOAD,2022-04-10 20:00:01,15.51197382,0.0001653,53.2173,232.2064,43.0986,129.3991,-0.0059627,-0.00340136,0.0,0 STARLINK-3369,1 51142U 22005AQ  22100.83334491 -.00340136  00000-0 -59627-2 0  9992,2 51142  53.2173 232.2064 0001653  43.0986 129.3991 15.51197382 14180,6791.366,92.832,414.354,412.108,0.0
51142.0,STARLINK-3369,PAYLOAD,2022-04-10 22:00:00,15.51143482,0.0001539,53.2171,231.8069,45.8542,232.2561,-0.0061674999999999,-0.00350655,0.0,0 STARLINK-3369,1 51142U 22005AQ  22100.91667824 -.00350655  00000-0 -61675-2 0  9993,2 51142  53.2171 231.8069 0001539  45.8542 232.2561 15.51143482  3681,6791.523,92.835,414.4330000000001,412.343,0.0
51142.0,STARLINK-3369,PAYLOAD,2022-04-11 14:00:01,15.50665265,0.0002037,53.2174,228.6171,26.7125,15.6666,-0.0062501999999999,-0.00349419,0.0,0 STARLINK-3369,1 51142U 22005AQ  22101.58334491 -.00349419  00000-0 -62502-2 0  9994,2 51142  53.2174 228.6171 0002037  26.7125  15.6666 15.50665265  3687,6792.92,92.863,416.168,413.401,0.0
